{
  "type": "FeatureCollection",
  "name": "builderworkshop.ca asset map",
  "generated": "2026-08-25",
  "features": [
    {
      "type": "Feature",
      "geometry": {
        "type": "Point",
        "coordinates": [
          -123.1107804,
          49.2829423
        ]
      },
      "properties": {
        "rank": 1,
        "id": "dctrl",
        "name": "DCTRL",
        "category": "Spaces & Places",
        "url": "https://www.dctrl.wtf/",
        "location": "328 W Hastings St · Gastown"
      }
    },
    {
      "type": "Feature",
      "geometry": {
        "type": "Point",
        "coordinates": [
          -123.1081537,
          49.2818936
        ]
      },
      "properties": {
        "rank": 2,
        "id": "launch",
        "name": "Launch Academy",
        "category": "Programs & Accelerators",
        "url": "https://www.launchacademy.ca/",
        "location": "350–128 W Hastings St · Gastown"
      }
    },
    {
      "type": "Feature",
      "geometry": {
        "type": "Point",
        "coordinates": [
          -123.107943,
          49.2818562
        ]
      },
      "properties": {
        "rank": 3,
        "id": "friendsquarters",
        "name": "FriendsQuarters",
        "category": "Spaces & Places",
        "url": "https://www.friendsquarters.com/",
        "location": "200–116 W Hastings St · Gastown",
        "capabilities": [
          "recording"
        ]
      }
    },
    {
      "type": "Feature",
      "geometry": {
        "type": "Point",
        "coordinates": [
          -123.1149,
          49.2832
        ]
      },
      "properties": {
        "rank": 5,
        "id": "internetarchive",
        "name": "Internet Archive Canada",
        "category": "Learning & Talent",
        "url": "https://internetarchivecanada.org/",
        "location": "330 W Pender St · Crosstown",
        "capabilities": [
          "digitization"
        ]
      }
    },
    {
      "type": "Feature",
      "geometry": {
        "type": "Point",
        "coordinates": [
          -123.2032773,
          49.27295
        ]
      },
      "properties": {
        "rank": 6,
        "id": "basecamp",
        "name": "Basecamp",
        "category": "Spaces & Places",
        "url": "https://basecampyvr.ca/",
        "location": "1515 Discovery St · Jericho Beach"
      }
    },
    {
      "type": "Feature",
      "geometry": {
        "type": "Point",
        "coordinates": [
          -123.1012334,
          49.2683654
        ]
      },
      "properties": {
        "rank": 7,
        "id": "ethoslab",
        "name": "Ethọ́s Lab",
        "category": "Learning & Talent",
        "url": "https://ethoslab.ca/",
        "location": "177 E 3rd Ave · Mount Pleasant",
        "capabilities": [
          "3d-print",
          "robotics"
        ]
      }
    },
    {
      "type": "Feature",
      "geometry": {
        "type": "Point",
        "coordinates": [
          -123.120525,
          49.2863433
        ]
      },
      "properties": {
        "rank": 8,
        "id": "funk",
        "name": "FUNK Coffee Bar",
        "category": "Spaces & Places",
        "url": "https://funk.coffee",
        "location": "1025 Dunsmuir St · Downtown"
      }
    },
    {
      "type": "Feature",
      "geometry": {
        "type": "Point",
        "coordinates": [
          -123.0704529,
          49.2765511
        ]
      },
      "properties": {
        "rank": 9,
        "id": "slice",
        "name": "Slice of Life",
        "category": "Spaces & Places",
        "url": "https://www.slicevancouver.ca/",
        "location": "1636 Venables St · Grandview-Woodland"
      }
    },
    {
      "type": "Feature",
      "geometry": {
        "type": "Point",
        "coordinates": [
          -123.0725869,
          49.2769261
        ]
      },
      "properties": {
        "rank": 10,
        "id": "vhs",
        "name": "Vancouver Hack Space",
        "category": "Spaces & Places",
        "url": "https://vanhack.ca/",
        "location": "1601 Venables St · Grandview-Woodland",
        "capabilities": [
          "3d-print",
          "laser",
          "wood",
          "metal",
          "electronics",
          "robotics"
        ]
      }
    },
    {
      "type": "Feature",
      "geometry": {
        "type": "Point",
        "coordinates": [
          -123.1022425,
          49.266589
        ]
      },
      "properties": {
        "rank": 13,
        "id": "northhouse",
        "name": "North House",
        "category": "Spaces & Places",
        "url": "https://www.joinnorthhouse.com/",
        "location": "111 E 5th Ave · Mount Pleasant"
      }
    },
    {
      "type": "Feature",
      "geometry": {
        "type": "Point",
        "coordinates": [
          -123.1119122,
          49.2846668
        ]
      },
      "properties": {
        "rank": 16,
        "id": "venturelabs",
        "name": "SFU VentureLabs",
        "category": "Programs & Accelerators",
        "url": "https://venturelabs.ca/",
        "location": "1200–555 W Hastings St · Downtown"
      }
    },
    {
      "type": "Feature",
      "geometry": {
        "type": "Point",
        "coordinates": [
          -123.089946,
          49.2673151
        ]
      },
      "properties": {
        "rank": 21,
        "id": "cdm",
        "name": "Centre for Digital Media",
        "category": "Learning & Talent",
        "url": "https://thecdm.ca/",
        "location": "685 Great Northern Way · False Creek Flats"
      }
    },
    {
      "type": "Feature",
      "geometry": {
        "type": "Point",
        "coordinates": [
          -122.849,
          49.1866
        ]
      },
      "properties": {
        "rank": 22,
        "id": "sfusurrey",
        "name": "SFU Surrey",
        "category": "Learning & Talent",
        "url": "https://www.sfu.ca/surrey/about/our-locations/sfu-surrey-plaza.html",
        "location": "250–13450 102 Ave · Surrey Central"
      }
    },
    {
      "type": "Feature",
      "geometry": {
        "type": "Point",
        "coordinates": [
          -122.9677019,
          49.2516823
        ]
      },
      "properties": {
        "rank": 23,
        "id": "civicinnovationlab",
        "name": "Civic Innovation Lab",
        "category": "Programs & Accelerators",
        "url": "https://civicinnovationlab.ca/",
        "location": "Christine Sinclair Community Centre · Burnaby"
      }
    },
    {
      "type": "Feature",
      "geometry": {
        "type": "Point",
        "coordinates": [
          -123.0027391,
          49.2279909
        ]
      },
      "properties": {
        "rank": 29,
        "id": "vtj",
        "name": "Vancouver Tech Journal",
        "category": "Media & Storytelling",
        "url": "https://vantechjournal.com/",
        "location": "6060 Silver Dr · Burnaby"
      }
    },
    {
      "type": "Feature",
      "geometry": {
        "type": "Point",
        "coordinates": [
          -123.1307386,
          49.2901038
        ]
      },
      "properties": {
        "rank": 31,
        "id": "vst",
        "name": "Victory Square Technologies",
        "category": "Capital & Venture",
        "url": "https://victorysquare.com/",
        "location": "800–1500 W Georgia St · Coal Harbour"
      }
    },
    {
      "type": "Feature",
      "geometry": {
        "type": "Point",
        "coordinates": [
          -123.0875456,
          49.2818969
        ]
      },
      "properties": {
        "rank": 32,
        "id": "makerlabs",
        "name": "MakerLabs",
        "category": "Spaces & Places",
        "url": "https://www.makerlabs.com/",
        "location": "780 E Cordova St · Strathcona",
        "capabilities": [
          "laser",
          "cnc",
          "3d-print",
          "wood",
          "metal",
          "ceramics"
        ]
      }
    },
    {
      "type": "Feature",
      "geometry": {
        "type": "Point",
        "coordinates": [
          -122.6503,
          49.0889
        ]
      },
      "properties": {
        "rank": 33,
        "id": "makercube",
        "name": "Maker Cube",
        "category": "Spaces & Places",
        "url": "https://makercube.ca/",
        "location": "104B–5947 206A St · Langley",
        "capabilities": [
          "laser",
          "cnc",
          "3d-print",
          "wood",
          "metal",
          "ceramics"
        ]
      }
    },
    {
      "type": "Feature",
      "geometry": {
        "type": "Point",
        "coordinates": [
          -123.0678595,
          49.2536988
        ]
      },
      "properties": {
        "rank": 34,
        "id": "vtl",
        "name": "Vancouver Tool Library",
        "category": "Spaces & Places",
        "url": "https://vancouvertoollibrary.com/",
        "location": "3448 Commercial St · The Drive",
        "capabilities": [
          "wood"
        ]
      }
    },
    {
      "type": "Feature",
      "geometry": {
        "type": "Point",
        "coordinates": [
          -123.07851,
          49.30955
        ]
      },
      "properties": {
        "rank": 35,
        "id": "zenmakerlab",
        "name": "Zen Maker Lab",
        "category": "Learning & Talent",
        "url": "https://www.zenmakerlab.com/",
        "location": "224–125 Victory Ship Way · The Shipyards, North Van",
        "capabilities": [
          "3d-print",
          "laser",
          "robotics"
        ]
      }
    },
    {
      "type": "Feature",
      "geometry": {
        "type": "Point",
        "coordinates": [
          -123.0792044,
          49.275975
        ]
      },
      "properties": {
        "rank": 36,
        "id": "tcglass",
        "name": "Terminal City Glass Co-op",
        "category": "Spaces & Places",
        "url": "https://terminalcityglass.com/",
        "location": "1191 Parker St · Strathcona",
        "capabilities": [
          "glass"
        ]
      }
    },
    {
      "type": "Feature",
      "geometry": {
        "type": "Point",
        "coordinates": [
          -123.115614,
          49.279659
        ]
      },
      "properties": {
        "rank": 37,
        "id": "inspirationlab",
        "name": "VPL Inspiration Lab",
        "category": "Spaces & Places",
        "url": "https://www.vpl.ca/branches/central/level-3/inspiration-lab",
        "location": "350 W Georgia St · Downtown",
        "capabilities": [
          "recording",
          "digitization"
        ]
      }
    },
    {
      "type": "Feature",
      "geometry": {
        "type": "Point",
        "coordinates": [
          -123.0476033,
          49.2608255
        ]
      },
      "properties": {
        "rank": 38,
        "id": "vivo",
        "name": "VIVO Media Arts",
        "category": "Media & Storytelling",
        "url": "https://www.vivomediaarts.com/",
        "location": "2625 Kaslo St · Renfrew-Collingwood",
        "capabilities": [
          "recording"
        ]
      }
    },
    {
      "type": "Feature",
      "geometry": {
        "type": "Point",
        "coordinates": [
          -123.0990799,
          49.2704431
        ]
      },
      "properties": {
        "rank": 39,
        "id": "artsfactory",
        "name": "The Arts Factory",
        "category": "Spaces & Places",
        "url": "https://www.artsfactorysociety.ca/",
        "location": "281 Industrial Ave · Strathcona",
        "capabilities": [
          "wood",
          "ceramics"
        ]
      }
    },
    {
      "type": "Feature",
      "geometry": {
        "type": "Point",
        "coordinates": [
          -123.4131897,
          48.4941015
        ]
      },
      "properties": {
        "rank": 40,
        "id": "victoria-makerspace",
        "name": "Victoria Makerspace",
        "category": "Spaces & Places",
        "url": "https://makerspace.ca/",
        "location": "4A–4476 Markham St · Saanich",
        "capabilities": [
          "laser",
          "cnc",
          "3d-print",
          "wood",
          "metal",
          "electronics"
        ]
      }
    },
    {
      "type": "Feature",
      "geometry": {
        "type": "Point",
        "coordinates": [
          -123.1114556,
          49.2819714
        ]
      },
      "properties": {
        "rank": 44,
        "id": "zspace",
        "name": "Z-Space",
        "category": "Spaces & Places",
        "url": "https://z-space.ca/",
        "location": "301–505 Hamilton St · Victory Square"
      }
    },
    {
      "type": "Feature",
      "geometry": {
        "type": "Point",
        "coordinates": [
          -123.9834,
          49.1939
        ]
      },
      "properties": {
        "rank": 45,
        "id": "makerspace-nanaimo",
        "name": "Makerspace Nanaimo",
        "category": "Spaces & Places",
        "url": "https://makerspacenanaimo.org/",
        "location": "2221A McGarrigle Rd · Nanaimo",
        "capabilities": [
          "3d-print",
          "wood",
          "metal",
          "robotics"
        ]
      }
    }
  ]
}
